[{"OBJECT_NAME":"SL-8 R/B","OBJECT_ID":"1979-089B","EPOCH":"2026-03-02T12:46:14.990880","MEAN_MOTION":14.42345054,"ECCENTRICITY":0.0017104,"INCLINATION":74.0673,"RA_OF_ASC_NODE":104.2945,"ARG_OF_PERICENTER":277.6823,"MEAN_ANOMALY":82.2391,"EPHEMERIS_TYPE":0,"CLASSIFICATION_TYPE":"U","NORAD_CAT_ID":11574,"ELEMENT_SET_NO":999,"REV_AT_EPOCH":43507,"BSTAR":9.4139e-5,"MEAN_MOTION_DOT":2.85e-6,"MEAN_MOTION_DDOT":0},{"OBJECT_NAME":"SL-14 R/B","OBJECT_ID":"1980-005B","EPOCH":"2026-03-02T17:56:48.385536","MEAN_MOTION":14.90920563,"ECCENTRICITY":0.00155674,"INCLINATION":82.5157,"RA_OF_ASC_NODE":313.8205,"ARG_OF_PERICENTER":180.9466,"MEAN_ANOMALY":179.1727,"EPHEMERIS_TYPE":0,"CLASSIFICATION_TYPE":"U","NORAD_CAT_ID":11672,"ELEMENT_SET_NO":999,"REV_AT_EPOCH":47545,"BSTAR":6.934168e-5,"MEAN_MOTION_DOT":7.1e-6,"MEAN_MOTION_DDOT":0},{"OBJECT_NAME":"SL-8 R/B","OBJECT_ID":"1981-003B","EPOCH":"2026-03-02T17:09:38.607552","MEAN_MOTION":15.10656978,"ECCENTRICITY":0.02627363,"INCLINATION":82.9395,"RA_OF_ASC_NODE":296.473,"ARG_OF_PERICENTER":202.8613,"MEAN_ANOMALY":156.0754,"EPHEMERIS_TYPE":0,"CLASSIFICATION_TYPE":"U","NORAD_CAT_ID":12139,"ELEMENT_SET_NO":999,"REV_AT_EPOCH":31362,"BSTAR":0.00051315151,"MEAN_MOTION_DOT":0.00019842,"MEAN_MOTION_DDOT":0},{"OBJECT_NAME":"SL-3 R/B","OBJECT_ID":"1981-046B","EPOCH":"2026-03-02T21:43:54.031872","MEAN_MOTION":15.4178334,"ECCENTRICITY":0.00201383,"INCLINATION":81.2313,"RA_OF_ASC_NODE":297.8903,"ARG_OF_PERICENTER":45.188,"MEAN_ANOMALY":315.0995,"EPHEMERIS_TYPE":0,"CLASSIFICATION_TYPE":"U","NORAD_CAT_ID":12465,"ELEMENT_SET_NO":999,"REV_AT_EPOCH":43738,"BSTAR":0.00032844008,"MEAN_MOTION_DOT":0.00014036,"MEAN_MOTION_DDOT":0},{"OBJECT_NAME":"SL-3 R/B","OBJECT_ID":"1981-103B","EPOCH":"2026-03-02T22:22:00.888672","MEAN_MOTION":15.21272937,"ECCENTRICITY":0.00125664,"INCLINATION":81.1568,"RA_OF_ASC_NODE":221.3591,"ARG_OF_PERICENTER":311.3173,"MEAN_ANOMALY":48.6976,"EPHEMERIS_TYPE":0,"CLASSIFICATION_TYPE":"U","NORAD_CAT_ID":12904,"ELEMENT_SET_NO":999,"REV_AT_EPOCH":97220,"BSTAR":0.00029335675,"MEAN_MOTION_DOT":6.594e-5,"MEAN_MOTION_DDOT":0},{"OBJECT_NAME":"SL-3 R/B","OBJECT_ID":"1982-013B","EPOCH":"2026-03-02T21:03:03.932640","MEAN_MOTION":15.21930194,"ECCENTRICITY":0.00223017,"INCLINATION":81.1771,"RA_OF_ASC_NODE":168.7531,"ARG_OF_PERICENTER":200.6456,"MEAN_ANOMALY":159.3877,"EPHEMERIS_TYPE":0,"CLASSIFICATION_TYPE":"U","NORAD_CAT_ID":13068,"ELEMENT_SET_NO":999,"REV_AT_EPOCH":40331,"BSTAR":0.00023187414,"MEAN_MOTION_DOT":5.343e-5,"MEAN_MOTION_DDOT":0},{"OBJECT_NAME":"SL-3 R/B","OBJECT_ID":"1982-039B","EPOCH":"2026-03-02T21:33:07.670880","MEAN_MOTION":15.10031658,"ECCENTRICITY":0.00298839,"INCLINATION":81.158,"RA_OF_ASC_NODE":223.7921,"ARG_OF_PERICENTER":346.5966,"MEAN_ANOMALY":13.4462,"EPHEMERIS_TYPE":0,"CLASSIFICATION_TYPE":"U","NORAD_CAT_ID":13154,"ELEMENT_SET_NO":999,"REV_AT_EPOCH":38061,"BSTAR":0.00018952374,"MEAN_MOTION_DOT":3.136e-5,"MEAN_MOTION_DDOT":0},{"OBJECT_NAME":"SL-3 R/B","OBJECT_ID":"1982-079B","EPOCH":"2026-03-02T21:46:42.314880","MEAN_MOTION":15.24674321,"ECCENTRICITY":0.0024815,"INCLINATION":81.1471,"RA_OF_ASC_NODE":201.0836,"ARG_OF_PERICENTER":187.6921,"MEAN_ANOMALY":172.3936,"EPHEMERIS_TYPE":0,"CLASSIFICATION_TYPE":"U","NORAD_CAT_ID":13403,"ELEMENT_SET_NO":999,"REV_AT_EPOCH":37666,"BSTAR":0.00031689051,"MEAN_MOTION_DOT":7.925e-5,"MEAN_MOTION_DDOT":0},{"OBJECT_NAME":"SL-14 R/B","OBJECT_ID":"1982-092B","EPOCH":"2026-03-02T17:18:14.343840","MEAN_MOTION":14.86657907,"ECCENTRICITY":0.00194642,"INCLINATION":82.5704,"RA_OF_ASC_NODE":147.9165,"ARG_OF_PERICENTER":328.0161,"MEAN_ANOMALY":146.7796,"EPHEMERIS_TYPE":0,"CLASSIFICATION_TYPE":"U","NORAD_CAT_ID":13553,"ELEMENT_SET_NO":999,"REV_AT_EPOCH":32789,"BSTAR":6.3598767e-5,"MEAN_MOTION_DOT":5.91e-6,"MEAN_MOTION_DDOT":0},{"OBJECT_NAME":"SL-3 R/B","OBJECT_ID":"1983-010B","EPOCH":"2026-03-02T21:37:45.030432","MEAN_MOTION":15.46060551,"ECCENTRICITY":0.00184858,"INCLINATION":81.1056,"RA_OF_ASC_NODE":10.5663,"ARG_OF_PERICENTER":72.4754,"MEAN_ANOMALY":287.8509,"EPHEMERIS_TYPE":0,"CLASSIFICATION_TYPE":"U","NORAD_CAT_ID":13819,"ELEMENT_SET_NO":999,"REV_AT_EPOCH":35689,"BSTAR":0.00038384506,"MEAN_MOTION_DOT":0.00018932,"MEAN_MOTION_DDOT":0},{"OBJECT_NAME":"SL-3 R/B","OBJECT_ID":"1983-075B","EPOCH":"2026-03-02T23:41:29.696928","MEAN_MOTION":15.3821986,"ECCENTRICITY":0.00197075,"INCLINATION":97.6131,"RA_OF_ASC_NODE":66.3113,"ARG_OF_PERICENTER":252.0844,"MEAN_ANOMALY":107.8252,"EPHEMERIS_TYPE":0,"CLASSIFICATION_TYPE":"U","NORAD_CAT_ID":14208,"ELEMENT_SET_NO":999,"REV_AT_EPOCH":32912,"BSTAR":0.00033524368,"MEAN_MOTION_DOT":0.00012621,"MEAN_MOTION_DDOT":0},{"OBJECT_NAME":"COSMOS 1536","OBJECT_ID":"1984-013A","EPOCH":"2026-03-02T22:56:43.364544","MEAN_MOTION":15.23719086,"ECCENTRICITY":0.00128365,"INCLINATION":82.5439,"RA_OF_ASC_NODE":114.5441,"ARG_OF_PERICENTER":310.0126,"MEAN_ANOMALY":49.9984,"EPHEMERIS_TYPE":0,"CLASSIFICATION_TYPE":"U","NORAD_CAT_ID":14699,"ELEMENT_SET_NO":999,"REV_AT_EPOCH":27159,"BSTAR":0.00031611223,"MEAN_MOTION_DOT":7.64e-5,"MEAN_MOTION_DDOT":0},{"OBJECT_NAME":"SL-14 R/B","OBJECT_ID":"1984-027B","EPOCH":"2026-03-02T23:01:31.351296","MEAN_MOTION":14.8596791,"ECCENTRICITY":0.0017948,"INCLINATION":82.5381,"RA_OF_ASC_NODE":251.3268,"ARG_OF_PERICENTER":0.7322,"MEAN_ANOMALY":359.3918,"EPHEMERIS_TYPE":0,"CLASSIFICATION_TYPE":"U","NORAD_CAT_ID":14820,"ELEMENT_SET_NO":999,"REV_AT_EPOCH":24663,"BSTAR":6.2149309e-5,"MEAN_MOTION_DOT":5.68e-6,"MEAN_MOTION_DDOT":0},{"OBJECT_NAME":"SL-8 R/B","OBJECT_ID":"1985-006B","EPOCH":"2026-03-02T22:00:34.030656","MEAN_MOTION":14.37777883,"ECCENTRICITY":0.00187289,"INCLINATION":74.0434,"RA_OF_ASC_NODE":273.6118,"ARG_OF_PERICENTER":192.9575,"MEAN_ANOMALY":271.2298,"EPHEMERIS_TYPE":0,"CLASSIFICATION_TYPE":"U","NORAD_CAT_ID":15483,"ELEMENT_SET_NO":999,"REV_AT_EPOCH":15305,"BSTAR":7.2286785e-5,"MEAN_MOTION_DOT":1.92e-6,"MEAN_MOTION_DDOT":0},{"OBJECT_NAME":"SL-12 R/B(2)","OBJECT_ID":"1985-042D","EPOCH":"2026-03-02T12:40:11.180352","MEAN_MOTION":14.21980154,"ECCENTRICITY":0.00335759,"INCLINATION":71.1065,"RA_OF_ASC_NODE":102.8608,"ARG_OF_PERICENTER":139.8596,"MEAN_ANOMALY":327.3242,"EPHEMERIS_TYPE":0,"CLASSIFICATION_TYPE":"U","NORAD_CAT_ID":15772,"ELEMENT_SET_NO":999,"REV_AT_EPOCH":11337,"BSTAR":9.6211127e-5,"MEAN_MOTION_DOT":1.66e-6,"MEAN_MOTION_DDOT":0},{"OBJECT_NAME":"SL-14 R/B","OBJECT_ID":"1985-069B","EPOCH":"2026-03-02T22:42:32.597568","MEAN_MOTION":14.86423453,"ECCENTRICITY":0.00178861,"INCLINATION":82.527,"RA_OF_ASC_NODE":31.2736,"ARG_OF_PERICENTER":210.6632,"MEAN_ANOMALY":149.3541,"EPHEMERIS_TYPE":0,"CLASSIFICATION_TYPE":"U","NORAD_CAT_ID":15945,"ELEMENT_SET_NO":999,"REV_AT_EPOCH":17183,"BSTAR":7.0380945e-5,"MEAN_MOTION_DOT":6.47e-6,"MEAN_MOTION_DDOT":0},{"OBJECT_NAME":"SL-16 R/B","OBJECT_ID":"1985-097B","EPOCH":"2026-03-02T17:22:11.989632","MEAN_MOTION":14.16599518,"ECCENTRICITY":0.00099121,"INCLINATION":71.0037,"RA_OF_ASC_NODE":155.2185,"ARG_OF_PERICENTER":267.9359,"MEAN_ANOMALY":205.4325,"EPHEMERIS_TYPE":0,"CLASSIFICATION_TYPE":"U","NORAD_CAT_ID":16182,"ELEMENT_SET_NO":999,"REV_AT_EPOCH":8624,"BSTAR":3.6486534e-5,"MEAN_MOTION_DOT":2.5e-7,"MEAN_MOTION_DDOT":0}]
