SL-8 R/B                
1 11574U 79089B   26061.53211795  .00000285  00000+0  94139-4 0  9993
2 11574  74.0673 104.2945 0017104 277.6823  82.2391 14.42345054435076
SL-14 R/B               
1 11672U 80005B   26061.74778224  .00000710  00000+0  69342-4 0  9991
2 11672  82.5157 313.8205 0015567 180.9466 179.1727 14.90920563475455
SL-8 R/B                
1 12139U 81003B   26061.71503018  .00019842  00000+0  51315-3 0  9999
2 12139  82.9395 296.4730 0262736 202.8613 156.0754 15.10656978313624
SL-3 R/B                
1 12465U 81046B   26061.90548648  .00014036  00000+0  32844-3 0  9993
2 12465  81.2313 297.8903 0020138  45.1880 315.0995 15.41783340437389
SL-3 R/B                
1 12904U 81103B   26061.93195473  .00006594  00000+0  29336-3 0  9994
2 12904  81.1568 221.3591 0012566 311.3173  48.6976 15.21272937972208
SL-3 R/B                
1 13068U 82013B   26061.87712885  .00005343  00000+0  23187-3 0  9991
2 13068  81.1771 168.7531 0022301 200.6456 159.3877 15.21930194403313
SL-3 R/B                
1 13154U 82039B   26061.89800545  .00003136  00000+0  18952-3 0  9990
2 13154  81.1580 223.7921 0029883 346.5966  13.4462 15.10031658380612
SL-3 R/B                
1 13403U 82079B   26061.90743420  .00007925  00000+0  31689-3 0  9993
2 13403  81.1471 201.0836 0024815 187.6921 172.3936 15.24674321376663
SL-14 R/B               
1 13553U 82092B   26061.72099935  .00000591  00000+0  63599-4 0  9997
2 13553  82.5704 147.9165 0019464 328.0161 146.7796 14.86657907327895
SL-3 R/B                
1 13819U 83010B   26061.90121563  .00018932  00000+0  38385-3 0  9998
2 13819  81.1056  10.5663 0018485  72.4754 287.8509 15.46060551356894
SL-3 R/B                
1 14208U 83075B   26061.98714927  .00012621  00000+0  33524-3 0  9991
2 14208  97.6131  66.3113 0019707 252.0844 107.8252 15.38219860329128
COSMOS 1536             
1 14699U 84013A   26061.95605746  .00007640  00000+0  31611-3 0  9993
2 14699  82.5439 114.5441 0012836 310.0126  49.9984 15.23719086271594
SL-14 R/B               
1 14820U 84027B   26061.95939064  .00000568  00000+0  62149-4 0  9990
2 14820  82.5381 251.3268 0017948   0.7322 359.3918 14.85967910246633
SL-8 R/B                
1 15483U 85006B   26061.91706054  .00000192  00000+0  72287-4 0  9998
2 15483  74.0434 273.6118 0018728 192.9575 271.2298 14.37777883153057
SL-12 R/B(2)            
1 15772U 85042D   26061.52790718  .00000166  00000+0  96211-4 0  9990
2 15772  71.1065 102.8608 0033575 139.8596 327.3242 14.21980154113376
SL-14 R/B               
1 15945U 85069B   26061.94621062  .00000647  00000+0  70381-4 0  9996
2 15945  82.5270  31.2736 0017886 210.6632 149.3541 14.86423453171839
SL-16 R/B               
1 16182U 85097B   26061.72374988  .00000025  00000+0  36487-4 0  9998
2 16182  71.0037 155.2185 0009912 267.9359 205.4325 14.16599518 86247
